start=new Date('2022-08-02T00:00:00.000Z').valueOf();
sats=[{"ELEMENT_SET_NO":"999","MEAN_MOTION_DDOT":"0.0000000000000","GP_ID":"209391037","SITE":"AFWTR","EPOCH":"2022-08-01T16:29:32.031456","OBJECT_NAME":"STARLINK-3090","NORAD_CAT_ID":"49132","ECCENTRICITY":"0.00028980","PERIAPSIS":"570.037","REV_AT_EPOCH":"4885","FILE":"3527139","TLE_LINE1":"1 49132U 21082C   22213.68717629 -.00000289  00000-0 -16413-4 0  9998","RCS_SIZE":"LARGE","BSTAR":"-0.00001641300000","APOAPSIS":"574.065","SEMIMAJOR_AXIS":"6950.186","EPHEMERIS_TYPE":"0","OBJECT_TYPE":"PAYLOAD","RA_OF_ASC_NODE":"12.5495","TIME_SYSTEM":"UTC","PERIOD":"96.107","REF_FRAME":"TEME","LAUNCH_DATE":"2021-09-14","MEAN_MOTION":"14.98332150","DECAY_DATE":null,"MEAN_ANOMALY":"99.0126","COUNTRY_CODE":"US","CLASSIFICATION_TYPE":"U","TLE_LINE2":"2 49132  70.0008  12.5495 0002898 261.0706  99.0126 14.98332150 48859","ARG_OF_PERICENTER":"261.0706","OBJECT_ID":"2021-082C","MEAN_ELEMENT_THEORY":"SGP4","CENTER_NAME":"EARTH","INCLINATION":"70.0008","MEAN_MOTION_DOT":"-0.00000289"},{"MEAN_ANOMALY":"108.4621","COUNTRY_CODE":"US","CLASSIFICATION_TYPE":"U","LAUNCH_DATE":"2021-09-14","REF_FRAME":"TEME","DECAY_DATE":null,"MEAN_MOTION":"14.98332087","RA_OF_ASC_NODE":"13.2461","OBJECT_TYPE":"PAYLOAD","PERIOD":"96.107","TIME_SYSTEM":"UTC","EPHEMERIS_TYPE":"0","INCLINATION":"70.0003","MEAN_MOTION_DOT":"0.00001118","OBJECT_ID":"2021-082D","CENTER_NAME":"EARTH","MEAN_ELEMENT_THEORY":"SGP4","TLE_LINE2":"2 49133  70.0003  13.2461 0003167 251.6194 108.4621 14.98332087 48812","ARG_OF_PERICENTER":"251.6194","REV_AT_EPOCH":"4881","NORAD_CAT_ID":"49133","ECCENTRICITY":"0.00031670","PERIAPSIS":"569.850","SITE":"AFWTR","GP_ID":"209334619","EPOCH":"2022-08-01T09:58:07.937760","OBJECT_NAME":"STARLINK-3077","MEAN_MOTION_DDOT":"0.0000000000000","ELEMENT_SET_NO":"999","APOAPSIS":"574.253","SEMIMAJOR_AXIS":"6950.186","TLE_LINE1":"1 49133U 21082D   22213.41536965  .00001118  00000-0  10151-3 0  9994","FILE":"3526929","RCS_SIZE":"LARGE","BSTAR":"0.00010151000000"},{"EPOCH":"2022-08-01T09:51:15.846912","OBJECT_NAME":"STARLINK-3078","SITE":"AFWTR","GP_ID":"209335867","ELEMENT_SET_NO":"999","MEAN_MOTION_DDOT":"0.0000000000000","REV_AT_EPOCH":"5001","PERIAPSIS":"569.992","ECCENTRICITY":"0.00029850","NORAD_CAT_ID":"49134","BSTAR":"0.00007328300000","RCS_SIZE":"LARGE","FILE":"3526929","TLE_LINE1":"1 49134U 21082E   22213.41060008  .00000781  00000-0  73283-4 0  9996","SEMIMAJOR_AXIS":"6950.202","APOAPSIS":"574.142","TIME_SYSTEM":"UTC","PERIOD":"96.107","RA_OF_ASC_NODE":"13.2583","OBJECT_TYPE":"PAYLOAD","EPHEMERIS_TYPE":"0","CLASSIFICATION_TYPE":"U","COUNTRY_CODE":"US","MEAN_ANOMALY":"99.2275","MEAN_MOTION":"14.98327045","DECAY_DATE":null,"REF_FRAME":"TEME","LAUNCH_DATE":"2021-09-14","ARG_OF_PERICENTER":"260.8546","TLE_LINE2":"2 49134  70.0014  13.2583 0002985 260.8546  99.2275 14.98327045 50015","MEAN_MOTION_DOT":"0.00000781","INCLINATION":"70.0014","CENTER_NAME":"EARTH","MEAN_ELEMENT_THEORY":"SGP4","OBJECT_ID":"2021-082E"},{"COUNTRY_CODE":"US","MEAN_ANOMALY":"100.4219","CLASSIFICATION_TYPE":"U","MEAN_MOTION":"14.96709994","DECAY_DATE":null,"LAUNCH_DATE":"2021-09-14","REF_FRAME":"TEME","OBJECT_TYPE":"PAYLOAD","RA_OF_ASC_NODE":"332.3967","PERIOD":"96.211","TIME_SYSTEM":"UTC","EPHEMERIS_TYPE":"0","INCLINATION":"69.9994","MEAN_MOTION_DOT":"-0.00000648","CENTER_NAME":"EARTH","MEAN_ELEMENT_THEORY":"SGP4","OBJECT_ID":"2021-082F","TLE_LINE2":"2 49135  69.9994 332.3967 0003202 259.6578 100.4219 14.96709994 49842","ARG_OF_PERICENTER":"259.6578","REV_AT_EPOCH":"4984","ECCENTRICITY":"0.00032020","NORAD_CAT_ID":"49135","PERIAPSIS":"574.845","GP_ID":"209336116","SITE":"AFWTR","OBJECT_NAME":"STARLINK-3073","EPOCH":"2022-08-01T13:55:38.429760","MEAN_MOTION_DDOT":"0.0000000000000","ELEMENT_SET_NO":"999","SEMIMAJOR_AXIS":"6955.207","APOAPSIS":"579.299","TLE_LINE1":"1 49135U 21082F   22213.58030590 -.00000648  00000-0 -48657-4 0  9999","FILE":"3526929","BSTAR":"-0.00004865700000","RCS_SIZE":"LARGE"},{"SEMIMAJOR_AXIS":"6955.208","APOAPSIS":"579.384","BSTAR":"0.00009881700000","RCS_SIZE":"LARGE","FILE":"3527139","TLE_LINE1":"1 49136U 21082G   22213.68378999  .00001039  00000-0  98817-4 0  9995","PERIAPSIS":"574.762","ECCENTRICITY":"0.00033230","NORAD_CAT_ID":"49136","REV_AT_EPOCH":"4936","MEAN_MOTION_DDOT":"0.0000000000000","ELEMENT_SET_NO":"999","EPOCH":"2022-08-01T16:24:39.455136","OBJECT_NAME":"STARLINK-3084","SITE":"AFWTR","GP_ID":"209391537","MEAN_ELEMENT_THEORY":"SGP4","CENTER_NAME":"EARTH","OBJECT_ID":"2021-082G","MEAN_MOTION_DOT":"0.00001039","INCLINATION":"70.0009","ARG_OF_PERICENTER":"248.7067","TLE_LINE2":"2 49136  70.0009 352.3933 0003323 248.7067 111.3737 14.96709790 49361","MEAN_MOTION":"14.96709790","DECAY_DATE":null,"LAUNCH_DATE":"2021-09-14","REF_FRAME":"TEME","CLASSIFICATION_TYPE":"U","MEAN_ANOMALY":"111.3737","COUNTRY_CODE":"US","EPHEMERIS_TYPE":"0","TIME_SYSTEM":"UTC","PERIOD":"96.211","RA_OF_ASC_NODE":"352.3933","OBJECT_TYPE":"PAYLOAD"},{"TLE_LINE1":"1 49137U 21082H   22213.68044863 -.00000300  00000-0 -18231-4 0  9990","FILE":"3527139","BSTAR":"-0.00001823100000","RCS_SIZE":"LARGE","SEMIMAJOR_AXIS":"6955.241","APOAPSIS":"579.287","GP_ID":"209391279","SITE":"AFWTR","OBJECT_NAME":"STARLINK-3055","EPOCH":"2022-08-01T16:19:50.761632","ELEMENT_SET_NO":"999","MEAN_MOTION_DDOT":"0.0000000000000","REV_AT_EPOCH":"4935","ECCENTRICITY":"0.00031360","NORAD_CAT_ID":"49137","PERIAPSIS":"574.925","TLE_LINE2":"2 49137  70.0023 352.4184 0003136 254.6685 105.4127 14.96699029 49350","ARG_OF_PERICENTER":"254.6685","INCLINATION":"70.0023","MEAN_MOTION_DOT":"-0.00000300","CENTER_NAME":"EARTH","MEAN_ELEMENT_THEORY":"SGP4","OBJECT_ID":"2021-082H","RA_OF_ASC_NODE":"352.4184","OBJECT_TYPE":"PAYLOAD","PERIOD":"96.212","TIME_SYSTEM":"UTC","EPHEMERIS_TYPE":"0","MEAN_ANOMALY":"105.4127","COUNTRY_CODE":"US","CLASSIFICATION_TYPE":"U","DECAY_DATE":null,"MEAN_MOTION":"14.96699029","REF_FRAME":"TEME","LAUNCH_DATE":"2021-09-14"},{"TLE_LINE2":"2 49138  70.0018  12.0911 0003051 248.8756 111.2077 14.98331790 48888","ARG_OF_PERICENTER":"248.8756","MEAN_ELEMENT_THEORY":"SGP4","CENTER_NAME":"EARTH","OBJECT_ID":"2021-082J","INCLINATION":"70.0018","MEAN_MOTION_DOT":"-0.00000815","EPHEMERIS_TYPE":"0","OBJECT_TYPE":"PAYLOAD","RA_OF_ASC_NODE":"12.0911","TIME_SYSTEM":"UTC","PERIOD":"96.107","DECAY_DATE":null,"MEAN_MOTION":"14.98331790","LAUNCH_DATE":"2021-09-14","REF_FRAME":"TEME","MEAN_ANOMALY":"111.2077","COUNTRY_CODE":"US","CLASSIFICATION_TYPE":"U","FILE":"3527139","TLE_LINE1":"1 49138U 21082J   22213.87315026 -.00000815  00000-0 -60543-4 0  9998","BSTAR":"-0.00006054300000","RCS_SIZE":"LARGE","SEMIMAJOR_AXIS":"6950.187","APOAPSIS":"574.173","MEAN_MOTION_DDOT":"0.0000000000000","ELEMENT_SET_NO":"999","SITE":"AFWTR","GP_ID":"209390536","EPOCH":"2022-08-01T20:57:20.182464","OBJECT_NAME":"STARLINK-3058","ECCENTRICITY":"0.00030510","NORAD_CAT_ID":"49138","PERIAPSIS":"569.932","REV_AT_EPOCH":"4888"},{"TLE_LINE2":"2 49139  69.9998 333.0946 0003131 267.4538  92.6262 14.96718968 49794","ARG_OF_PERICENTER":"267.4538","INCLINATION":"69.9998","MEAN_MOTION_DOT":"0.00000980","MEAN_ELEMENT_THEORY":"SGP4","CENTER_NAME":"EARTH","OBJECT_ID":"2021-082K","RA_OF_ASC_NODE":"333.0946","OBJECT_TYPE":"PAYLOAD","TIME_SYSTEM":"UTC","PERIOD":"96.210","EPHEMERIS_TYPE":"0","COUNTRY_CODE":"US","MEAN_ANOMALY":"92.6262","CLASSIFICATION_TYPE":"U","MEAN_MOTION":"14.96718968","DECAY_DATE":null,"LAUNCH_DATE":"2021-09-14","REF_FRAME":"TEME","FILE":"3526929","TLE_LINE1":"1 49139U 21082K   22213.30320947  .00000980  00000-0  93619-4 0  9996","BSTAR":"0.00009361900000","RCS_SIZE":"LARGE","SEMIMAJOR_AXIS":"6955.179","APOAPSIS":"579.222","GP_ID":"209335616","SITE":"AFWTR","OBJECT_NAME":"STARLINK-3057","EPOCH":"2022-08-01T07:16:37.298208","ELEMENT_SET_NO":"999","MEAN_MOTION_DDOT":"0.0000000000000","REV_AT_EPOCH":"4979","ECCENTRICITY":"0.00031310","NORAD_CAT_ID":"49139","PERIAPSIS":"574.867"},{"TLE_LINE2":"2 49140  70.0000 332.2787 0003231 262.5099  97.5692 14.96714851 49840","ARG_OF_PERICENTER":"262.5099","OBJECT_ID":"2021-082L","MEAN_ELEMENT_THEORY":"SGP4","CENTER_NAME":"EARTH","INCLINATION":"70.0000","MEAN_MOTION_DOT":"0.00001045","EPHEMERIS_TYPE":"0","RA_OF_ASC_NODE":"332.2787","OBJECT_TYPE":"PAYLOAD","TIME_SYSTEM":"UTC","PERIOD":"96.211","REF_FRAME":"TEME","LAUNCH_DATE":"2021-09-14","DECAY_DATE":null,"MEAN_MOTION":"14.96714851","MEAN_ANOMALY":"97.5692","COUNTRY_CODE":"US","CLASSIFICATION_TYPE":"U","FILE":"3526929","TLE_LINE1":"1 49140U 21082L   22213.62764259  .00001045  00000-0  99255-4 0  9996","RCS_SIZE":"LARGE","BSTAR":"0.00009925500000","APOAPSIS":"579.304","SEMIMAJOR_AXIS":"6955.192","MEAN_MOTION_DDOT":"0.0000000000000","ELEMENT_SET_NO":"999","SITE":"AFWTR","GP_ID":"209334871","EPOCH":"2022-08-01T15:03:48.319776","OBJECT_NAME":"STARLINK-3118","NORAD_CAT_ID":"49140","ECCENTRICITY":"0.00032310","PERIAPSIS":"574.810","REV_AT_EPOCH":"4984"},{"MEAN_ANOMALY":"109.3402","COUNTRY_CODE":"US","CLASSIFICATION_TYPE":"U","LAUNCH_DATE":"2021-09-14","REF_FRAME":"TEME","MEAN_MOTION":"14.98340645","DECAY_DATE":null,"RA_OF_ASC_NODE":"12.4276","OBJECT_TYPE":"PAYLOAD","PERIOD":"96.106","TIME_SYSTEM":"UTC","EPHEMERIS_TYPE":"0","INCLINATION":"69.9999","MEAN_MOTION_DOT":"0.00000641","OBJECT_ID":"2021-082M","MEAN_ELEMENT_THEORY":"SGP4","CENTER_NAME":"EARTH","TLE_LINE2":"2 49141  69.9999  12.4276 0003210 250.7410 109.3402 14.98340645 50063","ARG_OF_PERICENTER":"250.7410","REV_AT_EPOCH":"5006","NORAD_CAT_ID":"49141","ECCENTRICITY":"0.00032100","PERIAPSIS":"569.794","GP_ID":"209391779","SITE":"AFWTR","OBJECT_NAME":"STARLINK-3093","EPOCH":"2022-08-01T17:38:11.577408","ELEMENT_SET_NO":"999","MEAN_MOTION_DDOT":"0.0000000000000","APOAPSIS":"574.256","SEMIMAJOR_AXIS":"6950.160","FILE":"3527139","TLE_LINE1":"1 49141U 21082M   22213.73485622  .00000641  00000-0  61529-4 0  9997","RCS_SIZE":"LARGE","BSTAR":"0.00006152900000"}];
